[{"OBJECT_NAME":"ONEWEB-0174","OBJECT_ID":"2021-025AG","EPOCH":"2025-12-23T23:59:08.987712","MEAN_MOTION":13.13468074,"ECCENTRICITY":0.00016919,"INCLINATION":87.8979,"RA_OF_ASC_NODE":355.0435,"ARG_OF_PERICENTER":93.495,"MEAN_ANOMALY":266.6373,"EPHEMERIS_TYPE":0,"CLASSIFICATION_TYPE":"U","NORAD_CAT_ID":48072,"ELEMENT_SET_NO":999,"REV_AT_EPOCH":23083,"BSTAR":0.00063381056,"MEAN_MOTION_DOT":2.44e-6,"MEAN_MOTION_DDOT":0},{"OBJECT_NAME":"ONEWEB-0175","OBJECT_ID":"2021-025AH","EPOCH":"2025-12-24T06:12:05.791968","MEAN_MOTION":13.13468452,"ECCENTRICITY":0.00017759,"INCLINATION":87.8981,"RA_OF_ASC_NODE":354.9617,"ARG_OF_PERICENTER":77.2808,"MEAN_ANOMALY":282.8519,"EPHEMERIS_TYPE":0,"CLASSIFICATION_TYPE":"U","NORAD_CAT_ID":48073,"ELEMENT_SET_NO":999,"REV_AT_EPOCH":23052,"BSTAR":-0.00077770918,"MEAN_MOTION_DOT":-2.71e-6,"MEAN_MOTION_DDOT":0},{"OBJECT_NAME":"ONEWEB-0177","OBJECT_ID":"2021-025AJ","EPOCH":"2025-12-24T06:29:10.439808","MEAN_MOTION":13.13470414,"ECCENTRICITY":0.00015919,"INCLINATION":87.8988,"RA_OF_ASC_NODE":354.9792,"ARG_OF_PERICENTER":92.5381,"MEAN_ANOMALY":267.593,"EPHEMERIS_TYPE":0,"CLASSIFICATION_TYPE":"U","NORAD_CAT_ID":48074,"ELEMENT_SET_NO":999,"REV_AT_EPOCH":23071,"BSTAR":-0.00095957,"MEAN_MOTION_DOT":-3.38e-6,"MEAN_MOTION_DDOT":0},{"OBJECT_NAME":"ONEWEB-0178","OBJECT_ID":"2021-025AK","EPOCH":"2025-12-24T01:27:06.130368","MEAN_MOTION":13.13468824,"ECCENTRICITY":0.00015548,"INCLINATION":87.8979,"RA_OF_ASC_NODE":355.0609,"ARG_OF_PERICENTER":80.2678,"MEAN_ANOMALY":279.8627,"EPHEMERIS_TYPE":0,"CLASSIFICATION_TYPE":"U","NORAD_CAT_ID":48075,"ELEMENT_SET_NO":999,"REV_AT_EPOCH":23073,"BSTAR":0.00010263182,"MEAN_MOTION_DOT":5.0e-7,"MEAN_MOTION_DDOT":0},{"OBJECT_NAME":"ONEWEB-0108","OBJECT_ID":"2021-025AL","EPOCH":"2025-12-24T05:57:29.544768","MEAN_MOTION":13.13470061,"ECCENTRICITY":0.00019479,"INCLINATION":87.8984,"RA_OF_ASC_NODE":354.9733,"ARG_OF_PERICENTER":92.7667,"MEAN_ANOMALY":267.3685,"EPHEMERIS_TYPE":0,"CLASSIFICATION_TYPE":"U","NORAD_CAT_ID":48076,"ELEMENT_SET_NO":999,"REV_AT_EPOCH":23068,"BSTAR":-0.0011281159,"MEAN_MOTION_DOT":-3.99e-6,"MEAN_MOTION_DDOT":0},{"OBJECT_NAME":"ONEWEB-0169","OBJECT_ID":"2021-025AM","EPOCH":"2025-12-24T01:14:41.818560","MEAN_MOTION":13.13481186,"ECCENTRICITY":0.0002024,"INCLINATION":87.8978,"RA_OF_ASC_NODE":355.0322,"ARG_OF_PERICENTER":92.2705,"MEAN_ANOMALY":267.8656,"EPHEMERIS_TYPE":0,"CLASSIFICATION_TYPE":"U","NORAD_CAT_ID":48077,"ELEMENT_SET_NO":999,"REV_AT_EPOCH":22931,"BSTAR":-0.00091066399,"MEAN_MOTION_DOT":-3.2e-6,"MEAN_MOTION_DDOT":0},{"OBJECT_NAME":"ONEWEB-0176","OBJECT_ID":"2021-031A","EPOCH":"2025-12-24T04:25:14.920608","MEAN_MOTION":13.14501225,"ECCENTRICITY":0.00017402,"INCLINATION":87.9005,"RA_OF_ASC_NODE":324.5677,"ARG_OF_PERICENTER":79.2831,"MEAN_ANOMALY":280.8494,"EPHEMERIS_TYPE":0,"CLASSIFICATION_TYPE":"U","NORAD_CAT_ID":48210,"ELEMENT_SET_NO":999,"REV_AT_EPOCH":22532,"BSTAR":-9.1598555e-5,"MEAN_MOTION_DOT":-2.1e-7,"MEAN_MOTION_DDOT":0},{"OBJECT_NAME":"ONEWEB-0184","OBJECT_ID":"2021-031B","EPOCH":"2025-12-24T03:46:25.476384","MEAN_MOTION":13.14502114,"ECCENTRICITY":0.00018089,"INCLINATION":87.9014,"RA_OF_ASC_NODE":324.555,"ARG_OF_PERICENTER":54.1897,"MEAN_ANOMALY":305.94,"EPHEMERIS_TYPE":0,"CLASSIFICATION_TYPE":"U","NORAD_CAT_ID":48211,"ELEMENT_SET_NO":999,"REV_AT_EPOCH":22529,"BSTAR":-0.00074760273,"MEAN_MOTION_DOT":-2.64e-6,"MEAN_MOTION_DDOT":0},{"OBJECT_NAME":"ONEWEB-0179","OBJECT_ID":"2021-031C","EPOCH":"2025-12-24T04:53:48.405408","MEAN_MOTION":13.1450349,"ECCENTRICITY":0.0001641,"INCLINATION":87.9014,"RA_OF_ASC_NODE":324.5534,"ARG_OF_PERICENTER":92.0718,"MEAN_ANOMALY":268.0599,"EPHEMERIS_TYPE":0,"CLASSIFICATION_TYPE":"U","NORAD_CAT_ID":48212,"ELEMENT_SET_NO":999,"REV_AT_EPOCH":22534,"BSTAR":0.00028202508,"MEAN_MOTION_DOT":1.17e-6,"MEAN_MOTION_DDOT":0},{"OBJECT_NAME":"ONEWEB-0180","OBJECT_ID":"2021-031D","EPOCH":"2025-12-23T15:03:43.453728","MEAN_MOTION":13.14502439,"ECCENTRICITY":0.00014545,"INCLINATION":87.9013,"RA_OF_ASC_NODE":324.6658,"ARG_OF_PERICENTER":78.0599,"MEAN_ANOMALY":282.0694,"EPHEMERIS_TYPE":0,"CLASSIFICATION_TYPE":"U","NORAD_CAT_ID":48213,"ELEMENT_SET_NO":999,"REV_AT_EPOCH":22515,"BSTAR":-0.0009177957,"MEAN_MOTION_DOT":-3.27e-6,"MEAN_MOTION_DDOT":0},{"OBJECT_NAME":"ONEWEB-0218","OBJECT_ID":"2021-031E","EPOCH":"2025-12-24T04:22:58.072512","MEAN_MOTION":13.1450378,"ECCENTRICITY":0.00014925,"INCLINATION":87.9014,"RA_OF_ASC_NODE":324.5563,"ARG_OF_PERICENTER":48.8809,"MEAN_ANOMALY":311.2449,"EPHEMERIS_TYPE":0,"CLASSIFICATION_TYPE":"U","NORAD_CAT_ID":48214,"ELEMENT_SET_NO":999,"REV_AT_EPOCH":22538,"BSTAR":-0.00059611801,"MEAN_MOTION_DOT":-2.08e-6,"MEAN_MOTION_DDOT":0},{"OBJECT_NAME":"ONEWEB-0209","OBJECT_ID":"2021-031F","EPOCH":"2025-12-23T22:38:09.101760","MEAN_MOTION":13.14502556,"ECCENTRICITY":0.0001588,"INCLINATION":87.9,"RA_OF_ASC_NODE":324.6392,"ARG_OF_PERICENTER":85.9863,"MEAN_ANOMALY":274.1449,"EPHEMERIS_TYPE":0,"CLASSIFICATION_TYPE":"U","NORAD_CAT_ID":48215,"ELEMENT_SET_NO":999,"REV_AT_EPOCH":22535,"BSTAR":-0.0011943,"MEAN_MOTION_DOT":-4.3e-6,"MEAN_MOTION_DDOT":0},{"OBJECT_NAME":"ONEWEB-0198","OBJECT_ID":"2021-031G","EPOCH":"2025-12-24T03:44:19.872384","MEAN_MOTION":13.145002,"ECCENTRICITY":0.00014613,"INCLINATION":87.9,"RA_OF_ASC_NODE":324.5937,"ARG_OF_PERICENTER":76.0802,"MEAN_ANOMALY":284.049,"EPHEMERIS_TYPE":0,"CLASSIFICATION_TYPE":"U","NORAD_CAT_ID":48216,"ELEMENT_SET_NO":999,"REV_AT_EPOCH":22549,"BSTAR":0.00049821829,"MEAN_MOTION_DOT":1.97e-6,"MEAN_MOTION_DDOT":0},{"OBJECT_NAME":"ONEWEB-0189","OBJECT_ID":"2021-031H","EPOCH":"2025-12-23T22:33:33.994656","MEAN_MOTION":13.14500704,"ECCENTRICITY":0.0001489,"INCLINATION":87.9,"RA_OF_ASC_NODE":324.6112,"ARG_OF_PERICENTER":74.7215,"MEAN_ANOMALY":285.4079,"EPHEMERIS_TYPE":0,"CLASSIFICATION_TYPE":"U","NORAD_CAT_ID":48217,"ELEMENT_SET_NO":999,"REV_AT_EPOCH":22520,"BSTAR":-0.00083284,"MEAN_MOTION_DOT":-2.96e-6,"MEAN_MOTION_DDOT":0},{"OBJECT_NAME":"ONEWEB-0196","OBJECT_ID":"2021-031J","EPOCH":"2025-12-24T07:09:39.924000","MEAN_MOTION":13.14504274,"ECCENTRICITY":0.00016061,"INCLINATION":87.8999,"RA_OF_ASC_NODE":324.5534,"ARG_OF_PERICENTER":80.4199,"MEAN_ANOMALY":279.7112,"EPHEMERIS_TYPE":0,"CLASSIFICATION_TYPE":"U","NORAD_CAT_ID":48218,"ELEMENT_SET_NO":999,"REV_AT_EPOCH":22525,"BSTAR":0.00046507893,"MEAN_MOTION_DOT":1.85e-6,"MEAN_MOTION_DDOT":0},{"OBJECT_NAME":"ONEWEB-0183","OBJECT_ID":"2021-031K","EPOCH":"2025-12-24T06:33:07.750368","MEAN_MOTION":13.14503059,"ECCENTRICITY":0.00018274,"INCLINATION":87.8989,"RA_OF_ASC_NODE":324.5617,"ARG_OF_PERICENTER":89.9127,"MEAN_ANOMALY":270.2212,"EPHEMERIS_TYPE":0,"CLASSIFICATION_TYPE":"U","NORAD_CAT_ID":48219,"ELEMENT_SET_NO":999,"REV_AT_EPOCH":22534,"BSTAR":-0.00018062726,"MEAN_MOTION_DOT":-5.4e-7,"MEAN_MOTION_DDOT":0},{"OBJECT_NAME":"ONEWEB-0185","OBJECT_ID":"2021-031L","EPOCH":"2025-12-24T03:31:34.897152","MEAN_MOTION":13.14504378,"ECCENTRICITY":0.00015432,"INCLINATION":87.9014,"RA_OF_ASC_NODE":324.5653,"ARG_OF_PERICENTER":94.8455,"MEAN_ANOMALY":265.2851,"EPHEMERIS_TYPE":0,"CLASSIFICATION_TYPE":"U","NORAD_CAT_ID":48220,"ELEMENT_SET_NO":999,"REV_AT_EPOCH":22525,"BSTAR":0.00050489781,"MEAN_MOTION_DOT":2.0e-6,"MEAN_MOTION_DDOT":0},{"OBJECT_NAME":"ONEWEB-0187","OBJECT_ID":"2021-031M","EPOCH":"2025-12-24T04:52:27.196320","MEAN_MOTION":13.14501542,"ECCENTRICITY":0.0001518,"INCLINATION":87.8999,"RA_OF_ASC_NODE":324.5938,"ARG_OF_PERICENTER":84.8801,"MEAN_ANOMALY":275.2502,"EPHEMERIS_TYPE":0,"CLASSIFICATION_TYPE":"U","NORAD_CAT_ID":48221,"ELEMENT_SET_NO":999,"REV_AT_EPOCH":22527,"BSTAR":0.00071892697,"MEAN_MOTION_DOT":2.79e-6,"MEAN_MOTION_DDOT":0},{"OBJECT_NAME":"ONEWEB-0192","OBJECT_ID":"2021-031N","EPOCH":"2025-12-24T04:09:16.010208","MEAN_MOTION":13.14502272,"ECCENTRICITY":0.00017382,"INCLINATION":87.8989,"RA_OF_ASC_NODE":324.5892,"ARG_OF_PERICENTER":80.2492,"MEAN_ANOMALY":279.8834,"EPHEMERIS_TYPE":0,"CLASSIFICATION_TYPE":"U","NORAD_CAT_ID":48222,"ELEMENT_SET_NO":999,"REV_AT_EPOCH":22518,"BSTAR":-0.00087518213,"MEAN_MOTION_DOT":-3.12e-6,"MEAN_MOTION_DDOT":0},{"OBJECT_NAME":"ONEWEB-0219","OBJECT_ID":"2021-031P","EPOCH":"2025-12-24T03:39:34.113024","MEAN_MOTION":13.14502035,"ECCENTRICITY":0.00015448,"INCLINATION":87.9003,"RA_OF_ASC_NODE":324.5724,"ARG_OF_PERICENTER":87.748,"MEAN_ANOMALY":272.3826,"EPHEMERIS_TYPE":0,"CLASSIFICATION_TYPE":"U","NORAD_CAT_ID":48223,"ELEMENT_SET_NO":999,"REV_AT_EPOCH":22538,"BSTAR":-0.00039637632,"MEAN_MOTION_DOT":-1.34e-6,"MEAN_MOTION_DDOT":0},{"OBJECT_NAME":"ONEWEB-0202","OBJECT_ID":"2021-031Q","EPOCH":"2025-12-24T06:51:23.696352","MEAN_MOTION":13.14500895,"ECCENTRICITY":0.00013459,"INCLINATION":87.8999,"RA_OF_ASC_NODE":324.5574,"ARG_OF_PERICENTER":59.9057,"MEAN_ANOMALY":300.2206,"EPHEMERIS_TYPE":0,"CLASSIFICATION_TYPE":"U","NORAD_CAT_ID":48224,"ELEMENT_SET_NO":999,"REV_AT_EPOCH":22538,"BSTAR":0.00038936519,"MEAN_MOTION_DOT":1.57e-6,"MEAN_MOTION_DDOT":0},{"OBJECT_NAME":"ONEWEB-0204","OBJECT_ID":"2021-031R","EPOCH":"2025-12-23T22:32:25.653120","MEAN_MOTION":13.14502425,"ECCENTRICITY":0.0001908,"INCLINATION":87.9001,"RA_OF_ASC_NODE":324.6171,"ARG_OF_PERICENTER":91.1032,"MEAN_ANOMALY":269.0316,"EPHEMERIS_TYPE":0,"CLASSIFICATION_TYPE":"U","NORAD_CAT_ID":48225,"ELEMENT_SET_NO":999,"REV_AT_EPOCH":22523,"BSTAR":-0.0014657,"MEAN_MOTION_DOT":-5.31e-6,"MEAN_MOTION_DDOT":0},{"OBJECT_NAME":"ONEWEB-0205","OBJECT_ID":"2021-031S","EPOCH":"2025-12-24T07:05:05.529696","MEAN_MOTION":13.14501967,"ECCENTRICITY":0.00016116,"INCLINATION":87.9,"RA_OF_ASC_NODE":324.5391,"ARG_OF_PERICENTER":85.6473,"MEAN_ANOMALY":274.4841,"EPHEMERIS_TYPE":0,"CLASSIFICATION_TYPE":"U","NORAD_CAT_ID":48226,"ELEMENT_SET_NO":999,"REV_AT_EPOCH":22529,"BSTAR":-9.682736e-6,"MEAN_MOTION_DOT":9.0e-8,"MEAN_MOTION_DDOT":0}]
